#dP2023  9  4 12  0  0.00000000      96 __u+U ITR00 EXT  IAC
## 2278 129600.00000000   900.00000000 60191 0.5000000000000
+  119   C06C07C08C09C10C11C12C13C14C16C19C20C21C22C23C24C25
+        C26C27C28C29C30C32C33C34C35C36C37C38C39C40C41C42C43
+        C44C45C46E02E03E04E05E07E08E09E10E11E12E13E14E15E18
+        E19E21E24E25E26E27E30E31E33E34E36G01G02G03G04G05G06
+        G07G08G09G10G11G12G13G14G15G16G17G18G19G20G21G22G23
+        G24G25G26G27G28G29G30G31G32J02J03J04R01R02R03R04R05
+        R07R08R09R11R12R13R14R15R16R17R18R19R20R21R22R24R25
++         9 10 10 10  8 10  9  9 11  9  9  7  9  7  8  8  9
++         9  9 10  7  7  7 10  8  7  9  9 11 10  9 10  8  8
++         8  7  7  7  7  8  7  8  7  7  7  8  8  8  6  7  7
++         7  7  7  7  7  7  8  7  7  7  7  7  9  8  9  7  6
++         8  8  7  7  8  6  7  6  8  6  8  6  7  7  9  7  6
++         7  8  7  7  8  7  7  8  8  8  8 10  9  7  7  8  7
++         9  8  7  7  9  9  9  9  8  8  8  8  8  9  8  9  8
%c M  cc GPS ccc cccc cccc cccc cccc ccccc ccccc ccccc ccccc
%c cc cc ccc ccc cccc cccc cccc cccc ccccc ccccc ccccc ccccc
%f  0.0000000  0.000000000  0.00000000000  0.000000000000000
%f  0.0000000  0.000000000  0.00000000000  0.000000000000000
%i    0    0    0    0      0      0      0      0         0
%i    0    0    0    0      0      0      0      0         0
/* IAC                                ULTRA-RAPID PREDICTION
/* S/V CLOCKS ARE ALIGNED TO GNSS TIME                      
/* G:C1WC2W R:C1PC2P E:C1XC5X C:C2IC6I J:C1CC2S             
/* PCV:IGS20_2274 OL/AL:FES2004  NONE     YN ORB:CoN CLK:CoN
*  2023 09 05  6  0  0.00000000
PC06  -9704.121561  40852.618917   5311.266422     25.117342
PC07  -5946.645584  27552.759074 -31231.098213    -38.861881
PC08 -19467.928655  25388.994499  27317.842387    359.641911
PC09  -6126.929878  41934.169850  -2463.590338    205.298775
PC10   1996.344233  29895.182245 -29157.074123   -168.096978
PC11  -6416.872995 -26475.780770  -6056.534045    815.855605
PC12   5419.558285 -24667.001864  11931.131558    931.603920
PC13 -11846.880396  26414.202234  30673.151141    346.505007
PC14 -13822.781225 -17907.004575 -16371.740430    350.445904
PC16 -12142.358449  39463.147556   9558.789066    -66.101920
PC19  21570.447686  15433.691386   8655.620754   -970.619723
PC20   5592.932741  17695.996320  20832.412123    308.005720
PC21  15156.352075  -9424.425859 -21441.371464   -963.094580
PC22  25993.265933   4152.625385  -9240.603247   -320.951615
PC23 -23190.821698   3971.359976  15012.500827   -881.683473
PC24   7360.626957 -20924.805734  16942.190261    359.155867
PC25 -12195.172748 -11025.608188  22541.070730    204.501657
PC26  20727.680430 -18573.475676   2268.058187   -173.227647
PC27 -10443.807829  18660.715423 -17949.620688    194.667943
PC28 -15995.024166    376.385037 -22859.474810    145.906870
PC29  13043.990352  20329.050333  13966.284480    170.334034
PC30   1663.935998  27619.729704  -3687.157498     -4.458850
PC32 -15225.332290   9468.827036  21392.679313   -529.449229
PC33 -21619.186544 -15349.487134  -8735.429567   -956.652938
PC34  -2604.279296 -27681.406563   2295.838913    252.611464
PC35  16073.093070   -773.208271  22790.088922    553.117770
PC36  11225.658461  11887.913305 -22587.226473   -241.400290
PC37 -21540.334939  17662.084992  -1427.496362   -820.738210
PC38 -25534.755430  26748.571846  20107.407006    102.752709
PC39 -13034.496270  37263.057249  15191.054420     -4.638640
PC40  -9729.073086  21606.387978 -34825.301571    -35.378386
PC41 -26175.502946  -4546.294144   8598.602021   -881.141403
PC42  -4060.461869 -17474.762382 -21347.093188   -556.386844
PC43 -12714.054743 -21009.070075 -13252.351737     38.371811
PC44   9933.451769 -18881.685063  17962.883989    221.790444
PC45  23330.509155  -4501.556468 -14649.016447    -22.039505
PC46  -6127.436955  20552.389406 -17831.231089    -81.877556
PE02   7807.086790  15803.205775 -23778.357328     60.288014
PE03  12670.756382  25991.679983   6290.958172    -52.845516
PE04 -21570.254564 -16349.370080  11989.252286   -205.099018
PE05  -3654.115763  20542.245488  20994.102738     15.479561
PE07  18026.299053  -2689.402198 -23320.411081    -72.532315
PE08  21460.558867  16718.971134 -11655.199661   -141.332279
PE09 -17998.747447   2452.186372  23371.713603   -145.318661
PE10 -17974.635202   3090.159141 -23319.305538   -561.391951
PE11 -19208.958585  14102.113851 -17573.331472   2869.120659
PE12 -14269.796395  -7414.244281 -24856.925754   -685.375833
PE13  19162.106121 -13468.755944  18101.340702    -19.568230
PE14   8508.045979 -16229.703349  18502.384488    331.399734
PE15  13993.127376   7804.083731  24890.721973    -50.727386
PE18 -17973.325091   8159.313052 -23378.583594    494.729432
PE19 -10743.018060 -26186.562630  -8657.831988  -1698.326903
PE21  13638.697819 -15653.866404  21103.168612   -550.787074
PE24 -28466.223632   5954.603894  -5469.663620   -304.391699
PE25 -14021.037779  15550.915851 -20910.339610     -1.338809
PE26  12676.809506 -26755.524875    107.913097    213.317620
PE27  28263.581046  -6416.026733   6040.283030   -142.140297
PE30  25816.052280   6882.656366 -12755.092991   -474.769405
PE31 -26066.933462  -6513.555386  12433.875278     -4.335036
PE33   -219.170329 -24546.289885 -16554.030066     -0.833318
PE34    757.912074  24194.940558  17015.240351    -65.352818
PE36 -13050.113766  26554.073914   -824.203605   -111.492104
PG01  14463.635120 -21525.398884   4475.577370    166.316525
PG02  16119.145027 -17210.597492  12549.597670   -557.595020
PG03  16285.344755 -12434.011976 -16983.841750   -151.924960
PG04   6110.164305 -16435.143764 -19903.949067    146.711777
PG05 -25831.030948   5275.098113   3464.865054   -141.508115
PG06 -10104.077921 -11488.263257 -21636.170091    555.634454
PG07   3267.255802 -23976.586321  10844.182758     76.020819
PG08  14017.987316  -6480.563874  21561.269836   -140.681261
PG09  -2652.872908 -21948.680283 -14764.405987    -68.175848
PG10  15784.549496  11351.185279  18421.526246    -52.118401
PG11 -17212.842887   2392.242365 -20057.227354   -353.664915
PG12 -20110.692557   9916.358414 -14453.402407   -421.134090
PG13 -16891.099471  -3396.705436  20080.960710    568.737876
PG14 -12151.478688 -13548.677828  19422.799834    175.460928
PG15 -12728.207910   9100.565894  20994.682469     74.493367
PG16  26774.639011   1230.254928   -854.656311   -458.663926
PG17 -13154.710550 -23000.769799    239.172943    723.511170
PG18  -2459.641068  23213.312974  12504.310320   -406.771789
PG19 -16626.026284 -19179.591360  -8589.282221    367.223883
PG20 -25250.827652    248.495292  -7877.736684    413.515938
PG21  16599.831768 -14537.598581  14609.947907    149.513716
PG22 -18337.755053 -11432.476329  15717.442206    127.945429
PG23   2130.509553  14767.733598  21980.479629     64.142925
PG24 -14885.728711  19483.246752   9282.038662   -310.496457
PG25  -6119.038040  15460.125066 -20974.847348    466.075378
PG26  23653.069183   5291.061851 -11380.081172    229.973429
PG27  18920.155485   6615.744123  17378.104434    -34.206967
PG28   9783.354998  13449.213283 -20731.339021     -5.704056
PG29    963.336517  22078.348353 -14703.243627   -608.922169
PG30  -4733.996047 -19367.266759  17544.627231   -490.546310
PG31  15657.917248   2894.774688 -21491.720077   -222.911851
PG32  16850.240802  20323.358771  -3598.741327   -552.761386
PJ02 -33636.658992  15559.853431 -15456.095747     -3.535199
PJ03 -22451.359560  30920.638694 -13122.065397     -2.158703
PJ04 -26272.779892  27121.938966  24619.501999     70.536663
PR01   3548.868017 -10661.723254 -22905.136760     64.962601
PR02 -13011.243100 -16686.540674 -14155.470681    -22.456495
PR03 -21847.686456 -12834.825879   2679.705307     84.637150
PR04 -18271.637727  -2337.086212  17659.997917    201.528328
PR05  -4949.306439   9607.422060  23111.590385    118.503514
PR07  21973.332729  12550.221788  -3396.928514     63.966491
PR08  18269.802356   2083.056519 -17643.034680    -72.409915
PR09   1399.696584  11920.252012 -22494.256856    140.545777
PR11  23153.096859  -9008.604895  -5728.595622   -153.230817
PR12  15799.564431 -15158.477268  13127.652697     30.936028
PR13    918.270178 -12535.018970  22188.284291    -38.879956
PR14 -17057.387102  -1500.028812  18932.582065     25.219920
PR15 -23272.717447   9476.249321   4435.826077     86.458800
PR16 -16007.378309  15161.124632 -12845.385130     18.387479
PR17  -8951.318503 -11091.702366 -21160.005842     14.744793
PR18 -10502.919355   7103.318373 -22126.404009    100.346802
PR19  -7917.613790  20461.342927 -13000.826418   -246.050319
PR20    846.062998  24348.219498   7617.315607    -99.492893
PR21   9068.322666  10026.236190  21621.887500    -35.659546
PR22  11078.865558  -7719.172011  21665.484699    126.150578
PR24  -2173.682939 -24102.656903  -8088.271479    -23.153606
PR25   8744.167745  11468.644468  21037.307242     39.271485
EOF
